[{"venueId":0,"name":"Hotel Orient","streetNo":"59","streetName":"Bayfield St","city":"Bellerive","postcode":7018,"state":"TAS"},{"venueId":1,"name":"CURRY HEAVEN INDIAN RESTAURANT AND INSTANT TAKEAWAY","streetNo":"5","streetName":"Pari Pl","city":"Cambewarra Village","postcode":2540,"state":"NSW"},{"venueId":2,"name":"JACQUI FLOWERS","streetNo":"6","streetName":"Stocker Crt","city":"Granton","postcode":7030,"state":"TAS"},{"venueId":3,"name":"Dime Investing","streetNo":"44","streetName":"Mcdonald St","city":"East Geelong","postcode":3219,"state":"VIC"},{"venueId":4,"name":"BENNEENANPHOTOGRAPHY","streetNo":"45","streetName":"Matthews St","city":"Wollongong","postcode":2500,"state":"NSW"},{"venueId":5,"name":"BUNDARRA RETREAT","streetNo":"10","streetName":"Urana St","city":"Wagga Wagga","postcode":2650,"state":"NSW"},{"venueId":6,"name":"EDELMAIER PROPERTY CO.","streetNo":"79","streetName":"King St","city":"Newcastle","postcode":2300,"state":"NSW"},{"venueId":7,"name":"UN-MEAN FEAT","streetNo":"27","streetName":"Cathedral Loop","city":"West Busselton","postcode":6280,"state":"WA"},{"venueId":8,"name":"SOLOMONS FLOORING (TRARALGON)","streetNo":"14","streetName":"Hearn St","city":"Drouin","postcode":3818,"state":"VIC"},{"venueId":9,"name":"Pure Home Body","streetNo":"9","streetName":"Londy St","city":"Svensson Heights","postcode":4670,"state":"QLD"},{"venueId":10,"name":"SPCyber","streetNo":"15","streetName":"Ellison St","city":"Newstead","postcode":7250,"state":"TAS"},{"venueId":11,"name":"Retro Sales","streetNo":"6A","streetName":"Heather Crt","city":"West Albury","postcode":2640,"state":"NSW"},{"venueId":12,"name":"BREWER - JOYCE ROOFING","streetNo":"53","streetName":"Ryot St","city":"Warrnambool","postcode":3280,"state":"VIC"},{"venueId":13,"name":"DAMICH PROFESSIONAL SERVICES","streetNo":"3","streetName":"Yarram St","city":"Howrah","postcode":7018,"state":"TAS"},{"venueId":14,"name":"Snap Fitness Morley","streetNo":"3","streetName":"Alpine Drv","city":"Draper","postcode":4520,"state":"QLD"},{"venueId":15,"name":"BALMAIN PENINSULA ACCOUNTING","streetNo":"7","streetName":"Tallayang St","city":"Bomaderry","postcode":2541,"state":"NSW"},{"venueId":16,"name":"Magnetic Shots","streetNo":"25","streetName":"Reis St","city":"Woolloongabba","postcode":4102,"state":"QLD"},{"venueId":17,"name":"WARDROBE MAKOVER CHALLENGE","streetNo":"31","streetName":"Langdon St","city":"Tannum Sands","postcode":4680,"state":"QLD"},{"venueId":18,"name":"TOORAK CONTINUOUS PROFESSIONAL LEARNING","streetNo":"10A","streetName":"Henry St","city":"Chittaway Point","postcode":2261,"state":"NSW"},{"venueId":19,"name":"The Wellbeing Box Co","streetNo":"17","streetName":"Giles St","city":"East Side","postcode":870,"state":"NT"},{"venueId":20,"name":"PHYSICO","streetNo":"557","streetName":"White Beach Rd","city":"White Beach","postcode":7184,"state":"TAS"},{"venueId":21,"name":"MDM Apparel","streetNo":"73","streetName":"Tompson St","city":"Wagga Wagga","postcode":2650,"state":"NSW"},{"venueId":22,"name":"JAEDEES TRUCK & AUTO","streetNo":"31","streetName":"Swan Drv","city":"Bundaberg","postcode":4670,"state":"QLD"},{"venueId":23,"name":"Tandarook Pastoral","streetNo":"320","streetName":"Greenshields Rd","city":"Drouin","postcode":3818,"state":"VIC"},{"venueId":24,"name":"BANKS THARGO","streetNo":"16","streetName":"Mainoru Pl","city":"Hawker","postcode":2614,"state":"ACT"},{"venueId":25,"name":"MAINTENANCE SERVICES OF AUSTRALIA","streetNo":"19","streetName":"Hutchins St","city":"Yarralumla","postcode":2600,"state":"ACT"},{"venueId":26,"name":"GECO GARDENS","streetNo":"10","streetName":"Thornbill Dr","city":"Hervey Bay","postcode":4655,"state":"QLD"},{"venueId":27,"name":"MISSION TILING","streetNo":"16","streetName":"Callistemon Drv","city":"Katherine East","postcode":850,"state":"NT"},{"venueId":28,"name":"CORKSCREW CELLARS SYLVANIA WATERS","streetNo":"65","streetName":"Barada","city":"Aranda","postcode":2614,"state":"ACT"},{"venueId":29,"name":"daring2change","streetNo":"15","streetName":"Paginton Crs","city":"Elizabeth East","postcode":5112,"state":"SA"},{"venueId":30,"name":"EIGHT MUSIC","streetNo":"1","streetName":"Beaumont Rd","city":"Balhannah","postcode":5242,"state":"SA"},{"venueId":31,"name":"ROADSIDE NUMBERS AUSTRALIA","streetNo":"36","streetName":"Cleghorn Ave","city":"Riverside","postcode":7250,"state":"TAS"},{"venueId":32,"name":"Acres of Care","streetNo":"28","streetName":"Rosedale Ave","city":"East Tamworth","postcode":2340,"state":"NSW"},{"venueId":33,"name":"DIVE TRAVELLER'S","streetNo":"26","streetName":"Bert Whiteley Pl","city":"Orange","postcode":2800,"state":"NSW"},{"venueId":34,"name":"KV plus Australia","streetNo":"57","streetName":"Langston La","city":"Clermont","postcode":4721,"state":"QLD"},{"venueId":35,"name":"Sonia Lisette Consulting","streetNo":"31","streetName":"Yaralla Ave","city":"South Mackay","postcode":4740,"state":"QLD"},{"venueId":36,"name":"Love Petrichor","streetNo":"15","streetName":"Hayes St","city":"Hillcrest","postcode":7320,"state":"TAS"},{"venueId":37,"name":"WISER WAYS","streetNo":"81","streetName":"Forrest St","city":"Geraldton","postcode":6530,"state":"WA"},{"venueId":38,"name":"Vivere Australia","streetNo":"21","streetName":"Firestone Pl","city":"Meadow Springs","postcode":6210,"state":"WA"},{"venueId":39,"name":"Cooke Park Cafe & Takeaway Parkes","streetNo":"261","streetName":"Charles St","city":"Launceston","postcode":7250,"state":"TAS"},{"venueId":40,"name":"Upspec Specialist Trade Services","streetNo":"179","streetName":"Brodies Rd","city":"Golden Valley","postcode":7304,"state":"TAS"},{"venueId":41,"name":"BEATS SMALL BUSINESS BOOKKEEPING","streetNo":"172","streetName":"Gordon St","city":"Port Macquarie","postcode":2444,"state":"NSW"},{"venueId":42,"name":"Auto Armoury","streetNo":"1","streetName":"Neale Pl","city":"Bomaderry","postcode":2541,"state":"NSW"},{"venueId":43,"name":"ASTUTE CARPENTRY & BUILDING SERVICES","streetNo":"2","streetName":"Fraser Ct","city":"Morwell","postcode":3840,"state":"VIC"},{"venueId":44,"name":"Yallingup Chocolate","streetNo":"22","streetName":"Sixth Ave","city":"South Townsville","postcode":4810,"state":"QLD"},{"venueId":45,"name":"Kawaii Miam Cakes","streetNo":"13","streetName":"Orchid Ave","city":"Port Macquarie","postcode":2444,"state":"NSW"},{"venueId":46,"name":"REDLINE CEILINGS","streetNo":"8","streetName":"Mona Crt","city":"Bli Bli","postcode":4560,"state":"QLD"},{"venueId":47,"name":"The Lashious Bar by Claudette","streetNo":"1","streetName":"Dalkeith St","city":"Waverley","postcode":7250,"state":"TAS"},{"venueId":48,"name":"HAMLEY BRIDGE CELEBRATIONS","streetNo":"22","streetName":"Creek Rd","city":"Tannum Sands","postcode":4680,"state":"QLD"},{"venueId":49,"name":"CULINARY SOUL","streetNo":"53","streetName":"Valley Vista Rd","city":"The Dawn","postcode":4570,"state":"QLD"},{"venueId":50,"name":"Life Without Barriers","streetNo":"3","streetName":"Centieal Dr","city":"Mooroopna","postcode":3629,"state":"VIC"},{"venueId":51,"name":"Maxiseal Shower Repairs","streetNo":"22B","streetName":"Andrew Rd","city":"Mt Samson","postcode":4520,"state":"QLD"},{"venueId":52,"name":"PICCONES SHOPPING VILLAGE - PEASE STREET","streetNo":"13","streetName":"Darragh St","city":"Tannum Sands","postcode":4680,"state":"QLD"},{"venueId":53,"name":"Tourwin","streetNo":"14","streetName":"Craigburn Farm Cct","city":"Craigburn Farm","postcode":5051,"state":"SA"},{"venueId":54,"name":"ECI ELECTRICAL","streetNo":"47","streetName":"Vincent Rd","city":"Morwell","postcode":3840,"state":"VIC"},{"venueId":55,"name":"NEV SOLOMON ENTERPRISES","streetNo":"141","streetName":"Sheridan St","city":"Cairns","postcode":4870,"state":"QLD"},{"venueId":56,"name":"CREEKVIEW FARM","streetNo":"4","streetName":"Seagrott Rd","city":"West Busselton","postcode":6280,"state":"WA"},{"venueId":57,"name":"PSYCORP","streetNo":"107","streetName":"Herries St","city":"Toowoomba","postcode":4350,"state":"QLD"},{"venueId":58,"name":"TEDDY'S BOUTIQUE ACCOMMODATION","streetNo":"58A","streetName":"Martin St","city":"Brighton","postcode":3186,"state":"VIC"},{"venueId":59,"name":"AUZ AFTERCARE","streetNo":"1","streetName":"Cameron Crt","city":"Drouin","postcode":3818,"state":"VIC"},{"venueId":60,"name":"Auyeah Express","streetNo":"26","streetName":"Tenison Dr","city":"Mt Gambier","postcode":5290,"state":"SA"},{"venueId":61,"name":"DEBONAIR TURFCARE","streetNo":"15","streetName":"Daly Crs","city":"West Lakes Shore","postcode":5020,"state":"SA"},{"venueId":62,"name":"SCHNAPPER POINT BOAT HIRE","streetNo":"58","streetName":"Investigator St","city":"Red Hill","postcode":2603,"state":"ACT"},{"venueId":63,"name":"BLUE FAME","streetNo":"19","streetName":"Boronia St","city":"Bowral","postcode":2576,"state":"NSW"},{"venueId":64,"name":"Demand A Driver ServiceS","streetNo":"15","streetName":"Barangaroo St","city":"Chisholm","postcode":2905,"state":"ACT"},{"venueId":65,"name":"Flexicare AUST.","streetNo":"4","streetName":"Fowler St","city":"Box Hill South","postcode":3128,"state":"VIC"},{"venueId":66,"name":"HOME IMPROVEMENT PAGES","streetNo":"81","streetName":"Drake St","city":"Devonport","postcode":7310,"state":"TAS"},{"venueId":67,"name":"Dimeday","streetNo":"1","streetName":"Mavis Rd","city":"Morayfield","postcode":4506,"state":"QLD"},{"venueId":68,"name":"sit work move","streetNo":"225A","streetName":"Salvado Rd","city":"Floreat","postcode":6014,"state":"WA"},{"venueId":69,"name":"Vink NeuroConsulting","streetNo":"15","streetName":"Jillian Rd","city":"Diamond Valley","postcode":4553,"state":"QLD"},{"venueId":70,"name":"AYURVEDA HEALTH AND FREEDOM","streetNo":"50","streetName":"Sunset Ct","city":"Tinana","postcode":4650,"state":"QLD"},{"venueId":71,"name":"DAY DAWN BUSINESS & TRAINING SERVICES","streetNo":"11","streetName":"Ocean View St","city":"Hervey Bay","postcode":4655,"state":"QLD"},{"venueId":72,"name":"CHAOTIC SMILES PHOTOGRAPHY","streetNo":"51","streetName":"Domain St","city":"Palmerston","postcode":2913,"state":"ACT"},{"venueId":73,"name":"MIRROR IMAGE PAINT AND PANEL","streetNo":"5","streetName":"Kavanagh St","city":"Mt Pleasant","postcode":6153,"state":"WA"},{"venueId":74,"name":"COULD'VE WOULD'VE SHOULD'VE","streetNo":"64","streetName":"William Drv","city":"Busselton","postcode":6280,"state":"WA"},{"venueId":75,"name":"UPTOWN EVENTS","streetNo":"24","streetName":"Leighanne Cres","city":"Arundel","postcode":4214,"state":"QLD"},{"venueId":76,"name":"Vasse Agricultural Services","streetNo":"27","streetName":"Ridgehaven Cct","city":"Leanyer","postcode":812,"state":"NT"},{"venueId":77,"name":"5 Star online","streetNo":"665","streetName":"Milne Rd","city":"Tea Tree Gully","postcode":5091,"state":"SA"},{"venueId":78,"name":"UNITED CHEMISTS ALICE SPRINGS","streetNo":"2","streetName":"Kurala Crct","city":"Gunn","postcode":832,"state":"NT"},{"venueId":79,"name":"EMPWR SOLUTIONS","streetNo":"21","streetName":"Mestrez St","city":"Cairns","postcode":4870,"state":"QLD"},{"venueId":80,"name":"CALOUNDRA HYDROPONICS","streetNo":"27","streetName":"Archdale Loop","city":"Piara Waters","postcode":6112,"state":"WA"},{"venueId":81,"name":"Belltower Visuals","streetNo":"21","streetName":"Value Ave","city":"Townsville","postcode":4810,"state":"QLD"},{"venueId":82,"name":"MINDEAN UPHOLSTERERS","streetNo":"536","streetName":"Toorak Rd","city":"Toorak","postcode":3142,"state":"VIC"},{"venueId":83,"name":"Umbrella Theatrical Productions","streetNo":"29","streetName":"Glegg St","city":"Gladstone","postcode":4680,"state":"QLD"},{"venueId":84,"name":"Sushi Sushi Epping","streetNo":"16","streetName":"Hogarth Rd","city":"Sulphur Creek","postcode":7316,"state":"TAS"},{"venueId":85,"name":"IAN LANCE","streetNo":"67","streetName":"Valley Rd","city":"Devonport","postcode":7310,"state":"TAS"},{"venueId":86,"name":"PERSONAL GROWTH COACH","streetNo":"9","streetName":"Latrobe St","city":"East Brisbane","postcode":4169,"state":"QLD"},{"venueId":87,"name":"MORNINGTON PENINSULA CRUISE CENTRE","streetNo":"80","streetName":"Thomas Mitchell Drv","city":"Wodonga","postcode":3690,"state":"NSW"},{"venueId":88,"name":"Jewel Clipz","streetNo":"420","streetName":"Old Bynoe Rd","city":"Livingstone","postcode":822,"state":"NT"},{"venueId":89,"name":"ASH & MAISON","streetNo":"7","streetName":"Bray Crs","city":"Garden Suburb","postcode":2289,"state":"NSW"},{"venueId":90,"name":"MELSOM GAS MANAGEMENT","streetNo":"112","streetName":"Clarence St","city":"Bellerive","postcode":7018,"state":"TAS"},{"venueId":91,"name":"A1 FRAMELESS GLASS FENCING","streetNo":"58","streetName":"Yenda Cl","city":"Bathurst","postcode":2795,"state":"NSW"},{"venueId":92,"name":"NORTHERN PATIOS","streetNo":"19","streetName":"Vaughan St","city":"West End","postcode":4810,"state":"QLD"},{"venueId":93,"name":"Three Amigos Mexican","streetNo":"70","streetName":"Bunda St","city":"Canberra","postcode":2601,"state":"ACT"},{"venueId":94,"name":"DEVELOPMENT INVESTMENT FINANCE","streetNo":"21","streetName":"Vestey St","city":"Wagga Wagga","postcode":2650,"state":"NSW"},{"venueId":95,"name":"myYoga (SA)","streetNo":"128","streetName":"George Rd","city":"Geraldton","postcode":6530,"state":"WA"},{"venueId":96,"name":"The Quinn Branxton","streetNo":"2","streetName":"Hall St","city":"Mole Creek","postcode":7304,"state":"TAS"},{"venueId":97,"name":"HB Food on the Run","streetNo":"24","streetName":"Sunnyside Rd","city":"Beaumont","postcode":5066,"state":"SA"},{"venueId":98,"name":"Nicole Sudjana","streetNo":"18","streetName":"Dennis St","city":"South Mackay","postcode":4740,"state":"QLD"},{"venueId":99,"name":"MARKETING WARRIORS AUSTRALIA","streetNo":"22A","streetName":"Scott St","city":"Parkside","postcode":5063,"state":"SA"},{"venueId":100,"name":"CC CLASSIC AUTOMOTIVE","streetNo":"131","streetName":"Mcdowalls Rd","city":"Bendigo","postcode":3550,"state":"VIC"},{"venueId":101,"name":"RMB BUILDING DESIGNS","streetNo":"34","streetName":"Fisher Rd","city":"Virgina","postcode":820,"state":"NT"},{"venueId":102,"name":"LIGHTEN UP NUTRITION","streetNo":"2","streetName":"Petras Cl","city":"Coonawarra","postcode":820,"state":"NT"},{"venueId":103,"name":"HASTINGS MASSAGE THERAPY","streetNo":"4","streetName":"Sutton Rd","city":"Shepparton","postcode":3630,"state":"VIC"},{"venueId":104,"name":"Rare Romance","streetNo":"50","streetName":"Greenacre Rd","city":"West Wollongong","postcode":2500,"state":"NSW"},{"venueId":105,"name":"Matthew Hopkins Media","streetNo":"11","streetName":"Bell St","city":"South Townsville","postcode":4810,"state":"QLD"},{"venueId":106,"name":"King Street Tattoo","streetNo":"33","streetName":"Englefield Ret","city":"Landsdale","postcode":6065,"state":"WA"},{"venueId":107,"name":"All Coast Goodyear Nambour","streetNo":"178","streetName":"Hazards View Drv","city":"Coles Bay","postcode":7215,"state":"TAS"},{"venueId":108,"name":"MARGARET RIVER SMOKEHOUSE","streetNo":"2","streetName":"Coleman St","city":"Muirhead","postcode":810,"state":"NT"},{"venueId":109,"name":"Aton Design & Craftworks","streetNo":"17","streetName":"Oleander Ave","city":"Kawungan","postcode":4655,"state":"QLD"},{"venueId":110,"name":"Neatspiration","streetNo":"3","streetName":"Myall Cl","city":"Nowra","postcode":2541,"state":"NSW"},{"venueId":111,"name":"The Natural Baking Co.","streetNo":"4","streetName":"Wilga Pl","city":"Moree","postcode":2400,"state":"NSW"},{"venueId":112,"name":"CALIBRE GROOMING CO.","streetNo":"60","streetName":"Old South Rd","city":"Bowral","postcode":2576,"state":"NSW"},{"venueId":113,"name":"Beyond Research","streetNo":"35","streetName":"Easther Cres","city":"Coconut Grove","postcode":810,"state":"NT"},{"venueId":114,"name":"Sunshine Coast Airport Transfers","streetNo":"236","streetName":"Lowry St","city":"North Albury","postcode":2640,"state":"NSW"},{"venueId":115,"name":"LIVEEVENTSCO.COM","streetNo":"157","streetName":"Old Bass Hwy","city":"Wynyard","postcode":7325,"state":"TAS"},{"venueId":116,"name":"JOYCE BLAIR CONSULTING","streetNo":"6","streetName":"Macquarie Crt","city":"New Norfolk","postcode":7140,"state":"TAS"},{"venueId":117,"name":"GREENHILLS DENTAL","streetNo":"12","streetName":"Elder Crs","city":"Nowra","postcode":2541,"state":"NSW"},{"venueId":118,"name":"KINDREDCOFFEEHOUSE","streetNo":"45","streetName":"Dunn Rd","city":"Bundaberg","postcode":4670,"state":"QLD"},{"venueId":119,"name":"ELEFANT SOLUTIONS","streetNo":"44","streetName":"Osburn Dr","city":"MacGregor","postcode":2615,"state":"ACT"},{"venueId":120,"name":"PINE KIDS","streetNo":"30","streetName":"Coranderrk St","city":"Reid","postcode":2612,"state":"ACT"},{"venueId":121,"name":"ALEXANDERSON ELECTRICAL & DATA","streetNo":"3","streetName":"Les Edwards St","city":"Forde","postcode":2914,"state":"ACT"},{"venueId":122,"name":"RPTM","streetNo":"17","streetName":"Sanders St","city":"Jingili","postcode":810,"state":"NT"},{"venueId":123,"name":"Commander Training","streetNo":"177","streetName":"Normanby St","city":"Warragul","postcode":3820,"state":"VIC"},{"venueId":124,"name":"SAJ MARKETING","streetNo":"90","streetName":"Douglas Ave","city":"South Perth","postcode":6151,"state":"WA"},{"venueId":125,"name":"BODYWISE PILATES","streetNo":"193","streetName":"Oldaker St","city":"Devonport","postcode":7310,"state":"TAS"},{"venueId":126,"name":"GERALDTON CITY STAY COTTAGE","streetNo":"39","streetName":"Bray Ave","city":"Semaphore Park","postcode":5019,"state":"SA"},{"venueId":127,"name":"Rodeo Saddle Shop","streetNo":"35","streetName":"Cherlin Drv","city":"Warrnambool","postcode":3280,"state":"VIC"},{"venueId":128,"name":"PestEd","streetNo":"420","streetName":"Crown St","city":"Wollongong","postcode":2500,"state":"NSW"},{"venueId":129,"name":"Mullany & Co Interior Solutions","streetNo":"17","streetName":"Diggles St","city":"Page","postcode":2614,"state":"ACT"},{"venueId":130,"name":"SRE Fabrication and Maintenance","streetNo":"154","streetName":"Windermere Rd","city":"Bundaberg","postcode":4670,"state":"QLD"},{"venueId":131,"name":"FUNK HAIR.BODY","streetNo":"18","streetName":"Tulane Drv","city":"Mildura","postcode":3500,"state":"VIC"},{"venueId":132,"name":"Oztech Discount","streetNo":"4","streetName":"Westley St","city":"Hawthorn East","postcode":3123,"state":"VIC"},{"venueId":133,"name":"Roskosh Couture","streetNo":"4","streetName":"Cromwell Crs","city":"Devonport","postcode":7310,"state":"TAS"},{"venueId":134,"name":"GULF STUDENT SERVICES","streetNo":"31","streetName":"Westview Dr","city":"Mooroopna","postcode":3629,"state":"VIC"},{"venueId":135,"name":"Stinger Campers","streetNo":"13","streetName":"Sevenoaks St","city":"Alexandra Hills","postcode":4161,"state":"QLD"},{"venueId":136,"name":"CAMPERDOWN CASCADE MOTEL","streetNo":"28","streetName":"Pindan Elb","city":"Atwell","postcode":6164,"state":"WA"},{"venueId":137,"name":"Newcastle summer dance intensive","streetNo":"6","streetName":"Corella Ct","city":"North Rockhampton","postcode":4701,"state":"QLD"},{"venueId":138,"name":"Copper & Chrome Design","streetNo":"75","streetName":"Bannister St","city":"South Mackay","postcode":4740,"state":"QLD"},{"venueId":139,"name":"YANKEN","streetNo":"244","streetName":"Milikapiti","city":"Darwin","postcode":800,"state":"NT"},{"venueId":140,"name":"AFFILIATE MARKETING BASICS","streetNo":"5","streetName":"Park Tce","city":"Strathalbyn","postcode":5255,"state":"SA"},{"venueId":141,"name":"THREE SEEDS GOURMET FOODS","streetNo":"51","streetName":"Orana Pl","city":"Riverside","postcode":7250,"state":"TAS"},{"venueId":142,"name":"The Speech Lab","streetNo":"22","streetName":"Peony Cct","city":"Little Mountain","postcode":4551,"state":"QLD"},{"venueId":143,"name":"Hrshikesh Technical Solutions","streetNo":"35","streetName":"Flinders Dr","city":"Stuart Park","postcode":820,"state":"NT"},{"venueId":144,"name":"LEE ROOFING","streetNo":"23","streetName":"Bong Bong Rd","city":"Mittagong","postcode":2575,"state":"NSW"},{"venueId":145,"name":"Glitz Events","streetNo":"31","streetName":"Verbrugghen St","city":"Melba","postcode":2615,"state":"ACT"},{"venueId":146,"name":"MANTIS & ASSOCIATES","streetNo":"27","streetName":"Monmouth St","city":"Ridleyton","postcode":5008,"state":"SA"},{"venueId":147,"name":"CAPTAIN STIRLING IGA","streetNo":"3","streetName":"Tulipwood Cl","city":"Coffs Harbour","postcode":2450,"state":"NSW"},{"venueId":148,"name":"Biggie's Bagels","streetNo":"22","streetName":"Algernon St","city":"Oatley","postcode":2223,"state":"NSW"},{"venueId":149,"name":"DIMITRI'S DAIRY","streetNo":"287","streetName":"Grassy Head Rd","city":"Stuarts Point","postcode":2441,"state":"NSW"},{"venueId":150,"name":"Glenn Taylor Wealth Management","streetNo":"30","streetName":"Brauman St","city":"Shepparton","postcode":3630,"state":"VIC"},{"venueId":151,"name":"SOAPBOX THEATRE PRODUCTIONS","streetNo":"117","streetName":"Farrell St","city":"Port Melbourne","postcode":3207,"state":"VIC"},{"venueId":152,"name":"CAPITOL FLORIST","streetNo":"214","streetName":"Lambert St","city":"Bathurst","postcode":2795,"state":"NSW"},{"venueId":153,"name":"ARROW DOMESTIC AND COMMERCIAL CLEANING","streetNo":"3","streetName":"Perrin Pl","city":"Cleveland","postcode":4163,"state":"QLD"},{"venueId":154,"name":"footprints child care centre","streetNo":"44","streetName":"Bowral Rd","city":"Mittagong","postcode":2575,"state":"NSW"},{"venueId":155,"name":"Clare Anderson Comfort Reads","streetNo":"15","streetName":"Clegowie St","city":"West Beach","postcode":5024,"state":"SA"},{"venueId":156,"name":"SHARPYS MOBILE WELDING AND ENGINEERING","streetNo":"45","streetName":"Bradfield St","city":"Brighton","postcode":4017,"state":"QLD"},{"venueId":157,"name":"WOMENANDWEALTH*","streetNo":"26","streetName":"Gliddon St","city":"Rosewater","postcode":5013,"state":"SA"},{"venueId":158,"name":"ZOHAR BROS","streetNo":"42","streetName":"Molong Rd","city":"Orange","postcode":2800,"state":"NSW"},{"venueId":159,"name":"Intention Skincare","streetNo":"127","streetName":"Hare St","city":"Mt Clarence","postcode":6330,"state":"WA"},{"venueId":160,"name":"FIT TO FILM","streetNo":"46","streetName":"Williams Rd","city":"Nedlands","postcode":6009,"state":"WA"},{"venueId":161,"name":"FISH PHOTO & VIDEO PRODUCTIONS","streetNo":"4","streetName":"Hood Tce","city":"Darwin","postcode":800,"state":"NT"},{"venueId":162,"name":"A.B.C. PAINTING SERVICE","streetNo":"72","streetName":"Eyre Hwy","city":"Wudinna","postcode":5652,"state":"SA"},{"venueId":163,"name":"NEAT SYSTEMS","streetNo":"19","streetName":"Governor Drv","city":"Falcon","postcode":6210,"state":"WA"},{"venueId":164,"name":"OMEGA AUTO TINT","streetNo":"49","streetName":"Hillside Rd","city":"Mt Waverley","postcode":3149,"state":"VIC"},{"venueId":165,"name":"Energise Coaching","streetNo":"145","streetName":"Ashbrook Ave","city":"Trinity Gardens","postcode":5068,"state":"SA"},{"venueId":166,"name":"Iconic MMA","streetNo":"6","streetName":"Inglis Ave","city":"Mirboo North","postcode":3871,"state":"VIC"},{"venueId":167,"name":"Fitsqd","streetNo":"49","streetName":"Primrose Tce","city":"Red Hill","postcode":4059,"state":"QLD"},{"venueId":168,"name":"PATERSON CAT BOARDING","streetNo":"28","streetName":"Corbert Ct","city":"Ferntree Gully","postcode":3156,"state":"VIC"},{"venueId":169,"name":"DISCOUNT NEON","streetNo":"5A","streetName":"Kia-Ora St","city":"Virginia","postcode":4014,"state":"QLD"},{"venueId":170,"name":"MINDFUL LIFE CO","streetNo":"40","streetName":"Bridge St","city":"Kensington","postcode":5068,"state":"SA"},{"venueId":171,"name":"STREAMLINE AIRCONDITIONING & REFRIDGERATION","streetNo":"1235","streetName":"Doveton St","city":"Ballarat","postcode":3350,"state":"VIC"},{"venueId":172,"name":"Boomerang Lighting","streetNo":"34","streetName":"Julie Anne St","city":"Hervey Bay","postcode":4655,"state":"QLD"},{"venueId":173,"name":"LYNSAVENUE","streetNo":"7","streetName":"Cameron Ave","city":"Altona Meadows","postcode":3028,"state":"VIC"},{"venueId":174,"name":"HAWKSHEAD GALLOWAYS","streetNo":"49","streetName":"Forrest Pde","city":"Bakewell","postcode":832,"state":"NT"},{"venueId":175,"name":"HSC EDGE ONLINE","streetNo":"24","streetName":"Bowden Gr","city":"Marion","postcode":5043,"state":"SA"},{"venueId":176,"name":"LUNA LIGHTING","streetNo":"6","streetName":"Blaxland St","city":"Dubbo","postcode":2830,"state":"NSW"},{"venueId":177,"name":"RAMIENS TIMBER CO DUBBO","streetNo":"4","streetName":"Cedar Pl","city":"Queanbeyan","postcode":2620,"state":"ACT"},{"venueId":178,"name":"MAP for Life","streetNo":"29","streetName":"Alison Ashby","city":"Banks","postcode":2906,"state":"ACT"},{"venueId":179,"name":"EBONY MAIZE MAKE UP ARTISTRY","streetNo":"24","streetName":"Frances Crt","city":"Sale","postcode":3850,"state":"VIC"},{"venueId":180,"name":"Balanza Massage","streetNo":"28","streetName":"Budgen St","city":"Moil","postcode":810,"state":"NT"},{"venueId":181,"name":"V G AUTOMOTIVE PAINT & ACCESSORIES SUPPLIES","streetNo":"17","streetName":"Boulton St","city":"North Adelaide","postcode":5006,"state":"SA"},{"venueId":182,"name":"ZAHARIAS KANAKARIS BUILDING SERVICES","streetNo":"12","streetName":"Ayres Ct","city":"Parkwood","postcode":6147,"state":"WA"},{"venueId":183,"name":"NORTH WEST HEATING & COOLING","streetNo":"28","streetName":"Bagot Rd","city":"The Narrows","postcode":820,"state":"NT"},{"venueId":184,"name":"KEIDGES RURAL SUPPLIES","streetNo":"40","streetName":"Milos Blv","city":"Wodonga","postcode":3690,"state":"VIC"},{"venueId":185,"name":"KLEINFASHION","streetNo":"6","streetName":"Coronation Pl","city":"Bellingen","postcode":2454,"state":"NSW"},{"venueId":186,"name":"PRIMEWOLFWEAR","streetNo":"134","streetName":"Worrolong Rd","city":"Worrolong","postcode":5291,"state":"SA"},{"venueId":187,"name":"ANGELS HOLISTIC COUNSELLING","streetNo":"22","streetName":"Patchem Way","city":"Westminster","postcode":6061,"state":"WA"},{"venueId":188,"name":"Central Highlands Hyundai","streetNo":"160","streetName":"Main Rd","city":"Huonville","postcode":7109,"state":"TAS"},{"venueId":189,"name":"KATE AND CAB","streetNo":"2","streetName":"Gaynor Crt","city":"Mt Warren Park","postcode":4207,"state":"QLD"},{"venueId":190,"name":"WHITEONTIME","streetNo":"5","streetName":"Kimberley Drv","city":"Bowral","postcode":2576,"state":"NSW"},{"venueId":191,"name":"HEADWATER FARM","streetNo":"73","streetName":"Sorell St","city":"Devonport","postcode":7310,"state":"TAS"},{"venueId":192,"name":"ABED WELDING & FENCING","streetNo":"1","streetName":"Douro St","city":"North Geelong","postcode":3215,"state":"VIC"},{"venueId":193,"name":"THE FIRM STUDIO","streetNo":"17","streetName":"Munro St","city":"Traralgon","postcode":3844,"state":"VIC"},{"venueId":194,"name":"Jervis Bay Dog Grooming","streetNo":"122","streetName":"Albert St","city":"Port Melbourne","postcode":3207,"state":"VIC"},{"venueId":195,"name":"SELLBUYBIKE","streetNo":"2","streetName":"Grey Crt","city":"Braitling","postcode":870,"state":"NT"},{"venueId":196,"name":"PARKLANDS WINES","streetNo":"185","streetName":"Discovery Drv","city":"Tweed Heads","postcode":2485,"state":"NSW"},{"venueId":197,"name":"AIRLIE BEACH BABYSITTING BY DANIELLE","streetNo":"1C","streetName":"Rose St","city":"Glenelg","postcode":5045,"state":"SA"},{"venueId":198,"name":"CnB Restorations","streetNo":"1","streetName":"Sturtvale Crt","city":"West Albury","postcode":2640,"state":"NSW"},{"venueId":199,"name":"OCEAN MADE GLASS","streetNo":"6","streetName":"Pioneer St","city":"Mittagong","postcode":2575,"state":"NSW"},{"venueId":200,"name":"A1 MASSEUR","streetNo":"18","streetName":"Gillieston Rd","city":"Maitland","postcode":2320,"state":"NSW"},{"venueId":201,"name":"Bowerbird Lane","streetNo":"122","streetName":"Smiths Rd","city":"Emerald Beach","postcode":2456,"state":"NSW"},{"venueId":202,"name":"CRB QLD","streetNo":"9","streetName":"Royce Gr","city":"Booragoon","postcode":6154,"state":"WA"},{"venueId":203,"name":"ConnectTek","streetNo":"20","streetName":"Grandview Ave","city":"Park Grove","postcode":7320,"state":"TAS"},{"venueId":204,"name":"OCTAVIA & GRACE","streetNo":"5","streetName":"Simon St","city":"Coolbellup","postcode":6163,"state":"WA"},{"venueId":205,"name":"VOFT WINES","streetNo":"25","streetName":"Addison Rd","city":"New Lambton","postcode":2305,"state":"NSW"},{"venueId":206,"name":"MY PARTY EDIT","streetNo":"13","streetName":"Royal Cct","city":"Durack","postcode":830,"state":"NT"},{"venueId":207,"name":"BELAT LASER AND BEAUTY","streetNo":"94","streetName":"Douglas St","city":"Nowra","postcode":2541,"state":"NSW"},{"venueId":208,"name":"My Industry Recruitment","streetNo":"19","streetName":"Finniss St","city":"Darwin","postcode":800,"state":"NT"},{"venueId":209,"name":"Merc-flow","streetNo":"8","streetName":"Counsel St","city":"Holder","postcode":2611,"state":"ACT"},{"venueId":210,"name":"PMB FINANCE","streetNo":"2","streetName":"Klara Crt","city":"Rutherford","postcode":2320,"state":"NSW"},{"venueId":211,"name":"Qualified Counsellors","streetNo":"7","streetName":"Ronan Crt","city":"Katherine East","postcode":850,"state":"NT"},{"venueId":212,"name":"VSV Stones","streetNo":"129","streetName":"Davey St","city":"Hobart","postcode":7000,"state":"TAS"},{"venueId":213,"name":"Yoga Lua","streetNo":"22","streetName":"Chatsbury St","city":"Goulburn","postcode":2580,"state":"NSW"},{"venueId":214,"name":"J & T Stumann Painting","streetNo":"228","streetName":"Arthur St","city":"Newstead","postcode":4006,"state":"QLD"},{"venueId":215,"name":"F & RN McNabb","streetNo":"13","streetName":"Gaden Cct","city":"Jingili","postcode":810,"state":"NT"},{"venueId":216,"name":"The Brewer's Nut Co","streetNo":"17","streetName":"Coveys Rd","city":"Tinbeerwah","postcode":4563,"state":"QLD"},{"venueId":217,"name":"ANEL'S FRESH COAT PAINTING & DECORATING SERVICES","streetNo":"13","streetName":"Park St","city":"Moonee Ponds","postcode":3039,"state":"VIC"},{"venueId":218,"name":"MWT Global","streetNo":"10","streetName":"Reuben Rd","city":"Widgee","postcode":4570,"state":"QLD"},{"venueId":219,"name":"Murnic fencing & construction","streetNo":"40","streetName":"Forest Ave","city":"East Perth","postcode":6004,"state":"WA"},{"venueId":220,"name":"CUSTOMISED CARPENTRY","streetNo":"4","streetName":"Farrow Way","city":"Bibra Lake","postcode":6163,"state":"WA"},{"venueId":221,"name":"Gold Coast Confectionery","streetNo":"27","streetName":"Bray St","city":"Coffs Harbour","postcode":2450,"state":"NSW"},{"venueId":222,"name":"WILDTHING SURFBOARDS","streetNo":"9","streetName":"Jule Knight St","city":"Casey","postcode":2913,"state":"ACT"},{"venueId":223,"name":"rightcollagen.com","streetNo":"138","streetName":"Beryl St","city":"Coffs Harbour","postcode":2450,"state":"NSW"},{"venueId":224,"name":"The Athletes Foot Mosman","streetNo":"146","streetName":"Morgan St","city":"Wagga Wagga","postcode":2650,"state":"NSW"},{"venueId":225,"name":"Smart Business Voice","streetNo":"0","streetName":"Darling View&amp;quot;","city":"Wentworth","postcode":2648,"state":"NSW"},{"venueId":226,"name":"XPRESSO DELIGHT SYDNEY","streetNo":"47","streetName":"Daveys Drv","city":"Branyan","postcode":4670,"state":"QLD"},{"venueId":227,"name":"Property Inspect WA","streetNo":"27","streetName":"Brunswick Av","city":"Coffs Harbour","postcode":2450,"state":"NSW"},{"venueId":228,"name":"AVIATION ART GALLERY","streetNo":"5","streetName":"Power Crs","city":"Katherine South","postcode":850,"state":"NT"},{"venueId":229,"name":"Modern Native","streetNo":"14","streetName":"Goodwin St","city":"Narrabeen","postcode":2101,"state":"NSW"},{"venueId":230,"name":"THE STAMP ALBUM","streetNo":"167","streetName":"Albany St","city":"Point Frederick","postcode":2250,"state":"NSW"},{"venueId":231,"name":"SAWASDEE AUSTRALIA","streetNo":"76","streetName":"Kepnock Rd","city":"Kepnock","postcode":4670,"state":"QLD"},{"venueId":232,"name":"WALALANGU CONCEPTS","streetNo":"3","streetName":"Meyer Pl","city":"Bomaderry","postcode":2541,"state":"NSW"},{"venueId":233,"name":"lancescapes","streetNo":"46","streetName":"Tennyson St","city":"Kurralta Park","postcode":5037,"state":"SA"},{"venueId":234,"name":"Vie Financial (Launceston)","streetNo":"83","streetName":"Crinigan Rd","city":"Morwell","postcode":3840,"state":"VIC"},{"venueId":235,"name":"GOLD STAR EXPRESS TRADING","streetNo":"68","streetName":"Highcliffe Crcle","city":"Lakelands","postcode":6180,"state":"WA"},{"venueId":236,"name":"CYNOXURE COMPUTERS","streetNo":"30","streetName":"Finlayson Crs","city":"Traralgon","postcode":3844,"state":"VIC"},{"venueId":237,"name":"DHOMESPACE","streetNo":"167","streetName":"Oxley Drv","city":"Mittagong","postcode":2575,"state":"NSW"},{"venueId":238,"name":"I C SOLUTIONS SMALL BUSINESS","streetNo":"21","streetName":"Bellgraveyard St","city":"Boulder","postcode":6432,"state":"WA"},{"venueId":239,"name":"LITTLE TOKYO! JAPANESE FOOD, FASHION, CULTURE","streetNo":"52","streetName":"Coventry St","city":"Montmorency","postcode":3094,"state":"VIC"},{"venueId":240,"name":"JOCKSTRAPSAUSTRALIA.COM.AU","streetNo":"10","streetName":"Waugh Cl","city":"Evatt","postcode":2617,"state":"ACT"},{"venueId":241,"name":"Western Harley-Davidson","streetNo":"27","streetName":"Ackworth Cres","city":"Warwick","postcode":6024,"state":"WA"},{"venueId":242,"name":"TreeNoire Photography","streetNo":"16","streetName":"Marian Drv","city":"Port Macquarie","postcode":2444,"state":"NSW"},{"venueId":243,"name":"BONDINI ENGINEERING","streetNo":"6","streetName":"Lydon Cr","city":"Nowra","postcode":2541,"state":"NSW"},{"venueId":244,"name":"Gratitude Garden Care","streetNo":"16","streetName":"Avokahville Ave","city":"Bundaberg","postcode":4670,"state":"QLD"},{"venueId":245,"name":"SECURE TRANSPORT VEHICLES","streetNo":"11","streetName":"The Halyard","city":"Port Macquarie","postcode":2444,"state":"NSW"},{"venueId":246,"name":"Merlinhawk","streetNo":"91B","streetName":"Hill St","city":"West Hobart","postcode":7000,"state":"TAS"},{"venueId":247,"name":"Direct Metals","streetNo":"106","streetName":"Bradley St","city":"Mooroopna","postcode":3629,"state":"VIC"},{"venueId":248,"name":"CUT PRICE FENCING SUPPLIES","streetNo":"9","streetName":"Ollis St","city":"Quindalup","postcode":6281,"state":"WA"},{"venueId":249,"name":"SKIMPLE","streetNo":"23","streetName":"Garden Gr","city":"West Moonah","postcode":7009,"state":"TAS"},{"venueId":250,"name":"HAWKER MARKET 88","streetNo":"5","streetName":"Dean St","city":"Tamworth","postcode":2340,"state":"NSW"},{"venueId":251,"name":"MATESWEIGHTS","streetNo":"27","streetName":"Wentworth Ave","city":"Sydney","postcode":2001,"state":"NSW"},{"venueId":252,"name":"TAMWORTH FAMILY DAY CARE","streetNo":"45","streetName":"Gordon St","city":"Port Macquarie","postcode":2444,"state":"NSW"},{"venueId":253,"name":"WELL MANORED GARDENS","streetNo":"15","streetName":"Bedlington Crt","city":"Noarlunga Downs","postcode":5168,"state":"SA"},{"venueId":254,"name":"Crystal Vision Creative","streetNo":"787","streetName":"St James Crs","city":"Albury","postcode":2640,"state":"NSW"},{"venueId":255,"name":"CPA ACCOUNTING & BOOKKEEPING SERVICE","streetNo":"24","streetName":"Carrington St","city":"Millner","postcode":810,"state":"NT"},{"venueId":256,"name":"DELACY MEDIATION","streetNo":"137","streetName":"Swan Drv","city":"Googong","postcode":2620,"state":"ACT"},{"venueId":257,"name":"Maker & Monger","streetNo":"33","streetName":"Frances Ridley Cct","city":"Brompton","postcode":5007,"state":"SA"},{"venueId":258,"name":"THE WOLLONDILLY STORE","streetNo":"169","streetName":"Wantigong St","city":"North Albury","postcode":2640,"state":"NSW"},{"venueId":259,"name":"MALLANGANEE PASTORAL CO","streetNo":"11","streetName":"Kalymnos Drv","city":"Karama","postcode":812,"state":"NT"},{"venueId":260,"name":"JR JOINERY","streetNo":"1","streetName":"Amanda Ct","city":"Hervey Bay","postcode":4655,"state":"QLD"},{"venueId":261,"name":"Priceline Pharmacy Cottesloe","streetNo":"8","streetName":"Clarinda Rd","city":"Ninderry","postcode":4561,"state":"QLD"},{"venueId":262,"name":"CURTIS PLUMBING","streetNo":"12","streetName":"Kengdelt Pl","city":"Orange","postcode":2800,"state":"NSW"},{"venueId":263,"name":"ENVY GRAPHICS","streetNo":"21","streetName":"Jolliffe St","city":"West Busselton","postcode":6280,"state":"WA"},{"venueId":264,"name":"HOSPITALITY COMMUNICATIONS","streetNo":"90","streetName":"Douglas Ave","city":"South Perth","postcode":6151,"state":"WA"},{"venueId":265,"name":"Inspired Play","streetNo":"1","streetName":"Skinner St","city":"The Gap","postcode":870,"state":"NT"},{"venueId":266,"name":"Inspired Gift Boxes","streetNo":"30","streetName":"Shannon St","city":"Birdwood","postcode":5234,"state":"SA"},{"venueId":267,"name":"SOY SHRED PERFORMANCE","streetNo":"59","streetName":"Smith St","city":"Darwin","postcode":800,"state":"NT"},{"venueId":268,"name":"Road Runner Taxi","streetNo":"30","streetName":"Daldy Cr","city":"Shepparton","postcode":3630,"state":"VIC"},{"venueId":269,"name":"ADELAIDE CANINE COACHING","streetNo":"6","streetName":"Glengarry Way","city":"Horsley","postcode":2530,"state":"NSW"},{"venueId":270,"name":"Disruptive Consulting","streetNo":"27","streetName":"Dunrobin St","city":"Shepparton","postcode":3630,"state":"VIC"},{"venueId":271,"name":"Filly and Co Millinery","streetNo":"71","streetName":"Little St","city":"Cairns","postcode":4870,"state":"QLD"},{"venueId":272,"name":"Currumbin Wreckers","streetNo":"71","streetName":"Garden St","city":"Warrnambool","postcode":3280,"state":"VIC"},{"venueId":273,"name":"Cospak Plastics","streetNo":"160","streetName":"Woodlake Blv","city":"Durack","postcode":830,"state":"NT"},{"venueId":274,"name":"CLICK 2 PRINT","streetNo":"259","streetName":"Davey St","city":"South Hobart","postcode":7004,"state":"TAS"},{"venueId":275,"name":"EVERYTHING HERBAL","streetNo":"7","streetName":"Marten St","city":"South Gladstone","postcode":4680,"state":"QLD"},{"venueId":276,"name":"Speedy Gonzalez cleaning","streetNo":"3","streetName":"Jones Crt","city":"Traralgon","postcode":3844,"state":"VIC"},{"venueId":277,"name":"Smiths Beach Villas","streetNo":"30","streetName":"Sunningdale Ave","city":"Novar Gardens","postcode":5040,"state":"SA"},{"venueId":278,"name":"KISSED BY A FISH","streetNo":"10","streetName":"Jasmin St","city":"Geraldton","postcode":6530,"state":"WA"},{"venueId":279,"name":"Healthy Hair Essentials","streetNo":"19","streetName":"Keating St","city":"Tannum Sands","postcode":4680,"state":"QLD"},{"venueId":280,"name":"EMMYS CAR DUMP","streetNo":"193","streetName":"McKillop St","city":"East Geelong","postcode":3219,"state":"VIC"},{"venueId":281,"name":"YB GRILL","streetNo":"4","streetName":"Grandview Crt","city":"Crafers","postcode":5152,"state":"SA"},{"venueId":282,"name":"POWER EQUIPMENT SPECIALISTS","streetNo":"8","streetName":"Boa Vista Rd","city":"New Town","postcode":7008,"state":"TAS"},{"venueId":283,"name":"Fish & Chips Junction","streetNo":"8","streetName":"Pertame St","city":"Finke","postcode":872,"state":"NT"},{"venueId":284,"name":"NIGHTINGALE NURSING","streetNo":"7","streetName":"Barrie St","city":"Coffs Harbour","postcode":2450,"state":"NSW"},{"venueId":285,"name":"CEPHERS","streetNo":"5","streetName":"Jordan St","city":"Somerville","postcode":3912,"state":"VIC"},{"venueId":286,"name":"LOVELY LASHES BY GEORGIA","streetNo":"15","streetName":"Golden Ave","city":"Tannum Sands","postcode":4680,"state":"QLD"},{"venueId":287,"name":"RADIANT GLOW SKIN N BODY TREATMENTS","streetNo":"37","streetName":"Broadmeadows Rd","city":"Elizabeth North","postcode":5113,"state":"SA"},{"venueId":288,"name":"SERENDIPITY FARM ENTERPRISES","streetNo":"425","streetName":"Village Drv","city":"Kingston","postcode":7050,"state":"TAS"},{"venueId":289,"name":"INCLUSIVE SURFACING & RECREATION","streetNo":"7","streetName":"Kent St","city":"West Gladstone","postcode":4680,"state":"QLD"},{"venueId":290,"name":"IsmArt","streetNo":"5","streetName":"Lakeside Dr","city":"Acacia Hills","postcode":7306,"state":"TAS"},{"venueId":291,"name":"ADETE THE LABEL","streetNo":"7A","streetName":"Harwood Pl","city":"South Bunbury","postcode":6230,"state":"WA"},{"venueId":292,"name":"GOLD ACCOUNTANTS","streetNo":"44","streetName":"Wilmot St","city":"The Narrows","postcode":820,"state":"NT"},{"venueId":293,"name":"J.L. DEVELOPMENT GROUP","streetNo":"4","streetName":"Putter Pl","city":"West Wodonga","postcode":3690,"state":"NSW"},{"venueId":294,"name":"MELBOURNE GYM SERVICE","streetNo":"3A","streetName":"Rosenberg Crs","city":"Kalgoorlie","postcode":6430,"state":"WA"},{"venueId":295,"name":"OTAMA LANDSCAPES","streetNo":"15","streetName":"Francis St E","city":"North Adelaide","postcode":5006,"state":"SA"},{"venueId":296,"name":"H.H. OLIVER & SONS","streetNo":"40","streetName":"Galbraith Rd","city":"Virgina","postcode":820,"state":"NT"},{"venueId":297,"name":"SOMEWHERE SPECIAL BEAUTY BOUTIQUE","streetNo":"22","streetName":"Scaddan St","city":"Wembley","postcode":6014,"state":"WA"},{"venueId":298,"name":"GOURMET GIPPSLAND HAMPER","streetNo":"3","streetName":"Applewood Crt","city":"Lutana","postcode":7009,"state":"TAS"},{"venueId":299,"name":"Bee Caring","streetNo":"43","streetName":"Gainsborough Drv","city":"Toowoomba","postcode":4350,"state":"QLD"},{"venueId":300,"name":"Toowoomba Butcher's Supplies","streetNo":"7","streetName":"La Perouse St","city":"Griffith","postcode":2603,"state":"ACT"},{"venueId":301,"name":"MessageXchange","streetNo":"18","streetName":"Railway Pde","city":"Mittagong","postcode":2575,"state":"NSW"},{"venueId":302,"name":"DNG INTERNATIONAL","streetNo":"7","streetName":"Hilltop Rse","city":"Willetton","postcode":6155,"state":"WA"},{"venueId":303,"name":"Broadside Carpentry","streetNo":"92","streetName":"College Ave","city":"West Busselton","postcode":6280,"state":"WA"},{"venueId":304,"name":"Jim's Cleaning (Blackburn South West)","streetNo":"83","streetName":"Farm Rd","city":"Springwood","postcode":2777,"state":"NSW"},{"venueId":305,"name":"GECKOGECKO - AUSTRALIA NEPHRURUS BREEDERS","streetNo":"64","streetName":"Dorothy St","city":"Geraldton","postcode":6530,"state":"WA"},{"venueId":306,"name":"WORK RIGHT CONTRACTING","streetNo":"36","streetName":"Alfred St","city":"Dubbo","postcode":2830,"state":"NSW"},{"venueId":307,"name":"Souvlike it","streetNo":"40","streetName":"Blackwood Rse","city":"Moe South","postcode":3825,"state":"VIC"},{"venueId":308,"name":"On Track Health Professionals","streetNo":"4","streetName":"Mundy St","city":"Geelong","postcode":3220,"state":"VIC"},{"venueId":309,"name":"LEAD PROS LEAD GENERATION","streetNo":"3","streetName":"Maxlay Rd","city":"Modbury Heights","postcode":5092,"state":"SA"},{"venueId":310,"name":"FORBES & FORBES","streetNo":"52","streetName":"Glossop Cres","city":"Campbell","postcode":2612,"state":"ACT"},{"venueId":311,"name":"LOTUS INN RESTAURANT","streetNo":"12","streetName":"Paisley St","city":"Newborough","postcode":3825,"state":"VIC"},{"venueId":312,"name":"Gillian Art Dolls","streetNo":"33","streetName":"Balaka St","city":"Warneet","postcode":3980,"state":"VIC"},{"venueId":313,"name":"Caths CC Cleaning","streetNo":"17","streetName":"Vitana Ct","city":"Craigmore","postcode":5114,"state":"SA"},{"venueId":314,"name":"Keystar Peugeot","streetNo":"2","streetName":"Challen Crt","city":"Evanston Park","postcode":5116,"state":"SA"},{"venueId":315,"name":"DESIGNER LAMPSHADES","streetNo":"107","streetName":"Bagot Rd","city":"Ludmilla","postcode":820,"state":"NT"},{"venueId":316,"name":"5 Star Brewing & Distilling Supplies","streetNo":"5","streetName":"Azalea St","city":"Greystanes","postcode":2145,"state":"NSW"},{"venueId":317,"name":"JOE PAUL MENSWEAR","streetNo":"4","streetName":"Rowallen Rd","city":"Torrens Park","postcode":5062,"state":"SA"},{"venueId":318,"name":"KOKOPOD Chocolate","streetNo":"361","streetName":"-363 Sheridan St","city":"Cairns","postcode":4870,"state":"QLD"},{"venueId":319,"name":"MASLOM CARPENTRY","streetNo":"19","streetName":"Barmah Pl","city":"Waterways","postcode":3195,"state":"VIC"},{"venueId":320,"name":"Ginger & Gray","streetNo":"51","streetName":"Rhodes St","city":"Kalgoorlie","postcode":6430,"state":"WA"},{"venueId":321,"name":"El Coco","streetNo":"5","streetName":"Clements St","city":"Bathurst","postcode":2795,"state":"NSW"},{"venueId":322,"name":"STUDIO C & CO BY CHARLIE S","streetNo":"14","streetName":"Heavitree Crt","city":"Alice Springs","postcode":870,"state":"NT"},{"venueId":323,"name":"JACX Property","streetNo":"37A","streetName":"Beach St","city":"Bellerive","postcode":7018,"state":"TAS"},{"venueId":324,"name":"Buy For Keeps","streetNo":"16","streetName":"Acacia Drv","city":"Romaine","postcode":7320,"state":"TAS"},{"venueId":325,"name":"ACCESS CABLE AND TRENCHING","streetNo":"3B","streetName":"Vesper St","city":"Mona Vale","postcode":2103,"state":"NSW"},{"venueId":326,"name":"FIVE MANNA VENTURES","streetNo":"71","streetName":"Napier St","city":"Cottesloe","postcode":6011,"state":"WA"},{"venueId":327,"name":"KS & KM CONTRACTING","streetNo":"31","streetName":"Watt St","city":"Newcastle","postcode":2300,"state":"NSW"},{"venueId":328,"name":"CLARITY by Karina","streetNo":"47","streetName":"Patricks Rd","city":"Arana Hills","postcode":4054,"state":"QLD"},{"venueId":329,"name":"DEAD DOG DESIGN","streetNo":"177","streetName":"Cecil St","city":"South Melbourne","postcode":3205,"state":"VIC"},{"venueId":330,"name":"The Hippie Whippy","streetNo":"5","streetName":"Charles St","city":"Queanbeyan","postcode":2620,"state":"NSW"},{"venueId":331,"name":"Gnalla Boodja","streetNo":"26","streetName":"Foreman St","city":"Rockhampton","postcode":4700,"state":"QLD"},{"venueId":332,"name":"J I KENSINGTON","streetNo":"521","streetName":"Fig Tree Pocket Rd","city":"Fig Tree Pocket","postcode":4069,"state":"QLD"},{"venueId":333,"name":"RAY WHITE (ECHUCA)","streetNo":"41","streetName":"Capper St","city":"Camden Park","postcode":5038,"state":"SA"},{"venueId":334,"name":"cuppy & cake kerry","streetNo":"60","streetName":"Las Vegas Drv","city":"Prospect Vale","postcode":7250,"state":"TAS"},{"venueId":335,"name":"The Olive Jar Cafe","streetNo":"3","streetName":"Harvey St","city":"Bendigo","postcode":3550,"state":"VIC"},{"venueId":336,"name":"CHANTELLE'S BEAUTY THERAPY","streetNo":"197","streetName":"Island Point Rd","city":"St Georges Basin","postcode":2540,"state":"NSW"},{"venueId":337,"name":"Rascraft Drafting","streetNo":"14","streetName":"The Avenue","city":"North Sydney","postcode":2060,"state":"NSW"},{"venueId":338,"name":"MELBOURNE ORTHOPAEDIC & SPORTS MEDICINE GROUP","streetNo":"3","streetName":"Huntington Ct","city":"Deception Bay","postcode":4508,"state":"QLD"},{"venueId":339,"name":"ASBESTOS WIZARD","streetNo":"12","streetName":"Roslyn Ave","city":"Burnie","postcode":7320,"state":"TAS"},{"venueId":340,"name":"NAILED IT BY GAZELLE","streetNo":"6","streetName":"Tucker St","city":"South Brighton","postcode":5048,"state":"SA"},{"venueId":341,"name":"SMART START EARLY LEARNING & DEVELOPMENT CENTRE","streetNo":"15","streetName":"Eastbourne Tce","city":"Macleay Island","postcode":4184,"state":"QLD"},{"venueId":342,"name":"Mohammad Amiri","streetNo":"5","streetName":"Nuss St","city":"Toowoomba","postcode":4350,"state":"QLD"},{"venueId":343,"name":"LUXAFOAM","streetNo":"370","streetName":"Bronzewing Ave","city":"Howard Springs","postcode":835,"state":"NT"},{"venueId":344,"name":"Lee's Home Cleaning","streetNo":"5","streetName":"The Quarterdeck","city":"Tweed Heads","postcode":2485,"state":"NSW"},{"venueId":345,"name":"ROB'S SHADE SAIL REPAIRS","streetNo":"434","streetName":"Armidale Rd","city":"Tamworth","postcode":2340,"state":"NSW"},{"venueId":346,"name":"fxtrading.com","streetNo":"150","streetName":"Knox Drv","city":"South Spreyton","postcode":7310,"state":"TAS"},{"venueId":347,"name":"GOLD COAST CAR SOUND","streetNo":"3","streetName":"Greensell St","city":"Bunbury","postcode":6230,"state":"WA"},{"venueId":348,"name":"NEURO COACHING ACADEMY","streetNo":"116","streetName":"Copland Drv","city":"Evatt","postcode":2617,"state":"ACT"},{"venueId":349,"name":"Cafe 47 Gold Coast","streetNo":"11","streetName":"Mywee St","city":"Cairns","postcode":4870,"state":"QLD"},{"venueId":350,"name":"HOUSEWORK HELPERS","streetNo":"1","streetName":"Bernard Pl","city":"Ulverstone","postcode":7315,"state":"TAS"},{"venueId":351,"name":"ARTIFICIAL INTELLIGENCE SYSTEMS AUSTRALIA","streetNo":"4","streetName":"Bancroft St","city":"Bendigo","postcode":3550,"state":"VIC"},{"venueId":352,"name":"L & J EVENTS","streetNo":"34","streetName":"Inverway Cct","city":"Farrar","postcode":830,"state":"NT"},{"venueId":353,"name":"GENESYS WEALTH","streetNo":"19","streetName":"Roderick St","city":"Amaroo","postcode":2914,"state":"ACT"},{"venueId":354,"name":"DRAIN SURGEON","streetNo":"23","streetName":"Derrima Rd","city":"Queanbeyan","postcode":2620,"state":"NSW"},{"venueId":355,"name":"NIMRODS COMPUTER SERVICES","streetNo":"248","streetName":"Esplanade East","city":"Port Melbourne","postcode":3207,"state":"VIC"},{"venueId":356,"name":"Sam and Nics IGA Xpress","streetNo":"5","streetName":"Kylie Maree Crt","city":"Tannum Sands","postcode":4680,"state":"QLD"},{"venueId":357,"name":"MR POSSUMAN","streetNo":"41","streetName":"Community St","city":"Shepparton","postcode":3630,"state":"VIC"},{"venueId":358,"name":"OLIVE LANE","streetNo":"76","streetName":"Morrisset St","city":"Bathurst","postcode":2795,"state":"NSW"},{"venueId":359,"name":"BLACK LABEL WATERPROOFING","streetNo":"24","streetName":"Gerard St","city":"Cremorne","postcode":2090,"state":"NSW"},{"venueId":360,"name":"Central Jetty Motel","streetNo":"160","streetName":"Knoke Ave","city":"Gordon","postcode":2906,"state":"ACT"},{"venueId":361,"name":"FOOTLOOSE","streetNo":"136","streetName":"Cessnock Rd","city":"Maitland","postcode":2320,"state":"NSW"},{"venueId":362,"name":"Skilled Hands","streetNo":"4","streetName":"Duchess Crt","city":"Cooloola Cove","postcode":4580,"state":"QLD"},{"venueId":363,"name":"EGYPTIAN CAT","streetNo":"127","streetName":"Buena Vista Ave","city":"Coorparoo","postcode":4151,"state":"QLD"},{"venueId":364,"name":"AVR ME","streetNo":"56","streetName":"Nicholas St","city":"Higgins","postcode":2615,"state":"ACT"},{"venueId":365,"name":"SPICE ODYSSEY","streetNo":"62","streetName":"Tantiny St","city":"Manly West","postcode":4179,"state":"QLD"},{"venueId":366,"name":"POLAR PAWS","streetNo":"1","streetName":"Herschell Cct","city":"Flynn","postcode":2615,"state":"ACT"},{"venueId":367,"name":"Clarks Plumbing & earthmoving","streetNo":"7","streetName":"Kelaher Rd","city":"Coonawarra","postcode":820,"state":"NT"},{"venueId":368,"name":"Down South Solar Power","streetNo":"31","streetName":"Banksia St","city":"Hervey Bay","postcode":4655,"state":"QLD"},{"venueId":369,"name":"GUARDIAN ANIMAL SOAP","streetNo":"49","streetName":"Knuckey St","city":"Darwin","postcode":800,"state":"NT"},{"venueId":370,"name":"JG CONSTRUCTION & MAINTENANCE","streetNo":"2","streetName":"Manton St","city":"Darwin","postcode":800,"state":"NT"},{"venueId":371,"name":"WALTON CONSULTING CO","streetNo":"6757","streetName":"Channel Hwy","city":"Deep Bay","postcode":7112,"state":"TAS"},{"venueId":372,"name":"COMPASS HYPNOTHERAPY","streetNo":"2","streetName":"Colo Pl","city":"Kaleen","postcode":2617,"state":"ACT"},{"venueId":373,"name":"Choices Flooring Fortitude Valley","streetNo":"61","streetName":"Bonson Tce","city":"Moulden","postcode":830,"state":"NT"},{"venueId":374,"name":"SL Coconut Tree","streetNo":"4","streetName":"Mellor Ct","city":"Florey","postcode":2615,"state":"ACT"},{"venueId":375,"name":"G A & M J LEE","streetNo":"22","streetName":"Duke St","city":"West Launceston","postcode":7250,"state":"TAS"},{"venueId":376,"name":"chopstix chinese restaurant","streetNo":"64","streetName":"Niagara St","city":"Armidale","postcode":2350,"state":"NSW"},{"venueId":377,"name":"MOORA FARM CONSULTANCY","streetNo":"4","streetName":"Colmer St","city":"Bruce","postcode":2617,"state":"ACT"},{"venueId":378,"name":"clows-top farm","streetNo":"35","streetName":"Torquay Rd","city":"East Devonport","postcode":7310,"state":"TAS"},{"venueId":379,"name":"LITTLE CARD SHOP","streetNo":"52","streetName":"Appin St","city":"Wangaratta","postcode":3677,"state":"VIC"},{"venueId":380,"name":"ELAMENTAL REJUVENATION","streetNo":"59A","streetName":"Sunbury Rd","city":"Victoria Park","postcode":6100,"state":"WA"},{"venueId":381,"name":"LITTLE BO CANDLE CO","streetNo":"22","streetName":"Thevenard Rd","city":"Thevenard","postcode":5690,"state":"SA"},{"venueId":382,"name":"SOMA HOME BAKERY","streetNo":"17","streetName":"Anderson St","city":"Mooroopna","postcode":3629,"state":"VIC"},{"venueId":383,"name":"Cal Lab Australia","streetNo":"117","streetName":"Maryvale Rd","city":"Morwell","postcode":3840,"state":"VIC"},{"venueId":384,"name":"WESTERN MOWING AND BLOCK MAINTENANCE","streetNo":"33","streetName":"Trumara Rd","city":"Marino","postcode":5049,"state":"SA"},{"venueId":385,"name":"Your Style Organising","streetNo":"357","streetName":"New Canterbury Rd","city":"Dulwich Hill","postcode":2203,"state":"NSW"},{"venueId":386,"name":"BUSSELTON BINS","streetNo":"39","streetName":"Wynter St","city":"Bundaberg","postcode":4670,"state":"QLD"},{"venueId":387,"name":"MJ Thomas Construction","streetNo":"142","streetName":"Leanyer Drv","city":"Leanyer","postcode":812,"state":"NT"},{"venueId":388,"name":"Aimee Tolomei Project Services","streetNo":"1","streetName":"Torridon Ave","city":"Parkwood","postcode":6147,"state":"WA"},{"venueId":389,"name":"SMALL BUSINESS CHAMPIONS","streetNo":"13","streetName":"Norfolk St","city":"Blackburn","postcode":3130,"state":"VIC"},{"venueId":390,"name":"HANNAFORD SEEDMASTER SERVICES WARRACKNABEAL","streetNo":"30","streetName":"Aitken St","city":"Yarloop","postcode":6218,"state":"WA"},{"venueId":391,"name":"Little Earthies Sustainability Consultancy","streetNo":"32","streetName":"Tipperary Crt","city":"Stuart Park","postcode":820,"state":"NT"},{"venueId":392,"name":"AYR Accountants","streetNo":"22","streetName":"Arana Pl","city":"Parkes","postcode":2870,"state":"NSW"},{"venueId":393,"name":"CUSHIONS EMPORIUM","streetNo":"24","streetName":"Quigley St","city":"Morwell","postcode":3840,"state":"VIC"},{"venueId":394,"name":"Learn & Play Preschool","streetNo":"71","streetName":"Walsgott St","city":"North Geelong","postcode":3215,"state":"VIC"},{"venueId":395,"name":"LLH SURVEYING","streetNo":"11","streetName":"Caprice Crt","city":"Emerald","postcode":4720,"state":"QLD"},{"venueId":396,"name":"Fix-A-Leak Waterproofing","streetNo":"1","streetName":"Stroud Crt","city":"Kilsyth South","postcode":3137,"state":"VIC"},{"venueId":397,"name":"ELTHAM ACCIDENT TOWING","streetNo":"1","streetName":"Olsen Gr","city":"South Bunbury","postcode":6230,"state":"WA"},{"venueId":398,"name":"FRESH NEST DOMESTIC CLEANING","streetNo":"3A","streetName":"Elwood Crt","city":"Craigie","postcode":6025,"state":"WA"},{"venueId":399,"name":"TBH Solutions","streetNo":"18","streetName":"Penghana Rd","city":"Queenstown","postcode":7467,"state":"TAS"},{"venueId":400,"name":"Cutting Edge Cabinets WA","streetNo":"57","streetName":"Hudson Fysh Av","city":"Ludmilla","postcode":820,"state":"NT"},{"venueId":401,"name":"HELEN O'GRADY CHILDREN'S DRAMA ACADEMY","streetNo":"10","streetName":"Kennedy St","city":"North Toowoomba","postcode":4350,"state":"QLD"},{"venueId":402,"name":"DRAGONS AURA","streetNo":"79","streetName":"New World Ave","city":"Trevallyn","postcode":7250,"state":"TAS"},{"venueId":403,"name":"EVERGLO","streetNo":"67","streetName":"Harold St","city":"Coles Bay","postcode":7215,"state":"TAS"},{"venueId":404,"name":"METAMORPHOSIS CREATIVES","streetNo":"36","streetName":"Blakeville Drv","city":"Caroline Springs","postcode":3023,"state":"VIC"},{"venueId":405,"name":"INFOTECH SYSTEMS","streetNo":"5","streetName":"Hudsteth St","city":"Katherine East","postcode":850,"state":"NT"},{"venueId":406,"name":"A M POLLARD PERFORMANCE ENGINEERING","streetNo":"16","streetName":"Goldsmith St","city":"Parap","postcode":820,"state":"NT"},{"venueId":407,"name":"LADYBUG TREATS","streetNo":"58","streetName":"Redding Rd","city":"Streaky Bay","postcode":5680,"state":"SA"},{"venueId":408,"name":"PROPERTY SHOP PORT DOUGLAS","streetNo":"68","streetName":"Beach Rd","city":"Kingston Beach","postcode":7050,"state":"TAS"},{"venueId":409,"name":"GEOSPARK","streetNo":"28","streetName":"Hanwood Rd","city":"Hanwood","postcode":2680,"state":"NSW"},{"venueId":410,"name":"MELBOURNE POOL AND SPA FENCE INSPECTIONS","streetNo":"40","streetName":"Kilpatrick Ave","city":"Shepparton","postcode":3630,"state":"VIC"},{"venueId":411,"name":"CELEBRITY JEWELS","streetNo":"5","streetName":"Mathew Crs","city":"Burpengary","postcode":4505,"state":"QLD"},{"venueId":412,"name":"SIMPLY SCRUMPTIOUS BAKES","streetNo":"40","streetName":"Tennison Crs","city":"Anula","postcode":812,"state":"NT"},{"venueId":413,"name":"BAMBINI TRIBE","streetNo":"15","streetName":"Albert St","city":"Upper Ferntree Gully","postcode":3156,"state":"VIC"},{"venueId":414,"name":"THE OASIS WELLNESS RETREAT","streetNo":"13","streetName":"Longreach Crt","city":"Tannum Sands","postcode":4680,"state":"QLD"},{"venueId":415,"name":"Sebastian Smith","streetNo":"463","streetName":"Victoria St","city":"West Melbourne","postcode":3003,"state":"VIC"},{"venueId":416,"name":"PERTH KINESIOLOGY","streetNo":"73","streetName":"Lancaster Drv","city":"West Busselton","postcode":6280,"state":"WA"},{"venueId":417,"name":"JET COLLEGE","streetNo":"501","streetName":"Gregory St","city":"Ballarat","postcode":3350,"state":"VIC"},{"venueId":418,"name":"W.H. & D.A. MCCLELLAND","streetNo":"167","streetName":"Bugden Ave","city":"Gowrie","postcode":2904,"state":"ACT"},{"venueId":419,"name":"KAPCO","streetNo":"125","streetName":"Peel Tce","city":"Busselton","postcode":6280,"state":"WA"},{"venueId":420,"name":"VAN DER LINDE ENGINEERING DESIGN","streetNo":"63","streetName":"Morrisset St","city":"Bathurst","postcode":2795,"state":"NSW"},{"venueId":421,"name":"HUBERT'S QUALITY HANDYMAN SERVICES","streetNo":"64","streetName":"Mcinnis Cct","city":"Driver","postcode":830,"state":"NT"},{"venueId":422,"name":"SPINAL DYNAMICS","streetNo":"222","streetName":"Beech Ave","city":"Mildura","postcode":3500,"state":"VIC"},{"venueId":423,"name":"A Home Like Alice","streetNo":"108","streetName":"Forrest Av","city":"South Bunbury","postcode":6230,"state":"WA"},{"venueId":424,"name":"Leo Birch Computer Training","streetNo":"42A","streetName":"Cecil Rd","city":"Orange","postcode":2800,"state":"NSW"},{"venueId":425,"name":"Illawarra Brick & Block","streetNo":"1A","streetName":"Sorrento St","city":"Margate","postcode":4019,"state":"QLD"},{"venueId":426,"name":"WAWIRRA SUPPLIES","streetNo":"45","streetName":"Hutchison","city":"Kambah","postcode":2902,"state":"ACT"},{"venueId":427,"name":"C.C.C.S. INVESTMENTS","streetNo":"107","streetName":"Diamantina","city":"Kaleen","postcode":2617,"state":"ACT"},{"venueId":428,"name":"Coverplas Nets","streetNo":"14","streetName":"Mosec St","city":"Ludmilla","postcode":820,"state":"NT"},{"venueId":429,"name":"Crystal Pan Beauty","streetNo":"18","streetName":"Hale Ave","city":"Nowra","postcode":2541,"state":"NSW"},{"venueId":430,"name":"BIG DADDY'S BURGERS AND DOGS","streetNo":"5","streetName":"Daisy St","city":"Mooroopna","postcode":3629,"state":"VIC"},{"venueId":431,"name":"Upwardly Mobile Personal Training","streetNo":"43","streetName":"Mcdermott St","city":"Kambah","postcode":2902,"state":"ACT"},{"venueId":432,"name":"Shellharbour Village Thai Massage","streetNo":"28","streetName":"Sanctuary Pl","city":"South Gladstone","postcode":4680,"state":"QLD"},{"venueId":433,"name":"LIGHTING CITY","streetNo":"56","streetName":"Graffunder St","city":"South Mackay","postcode":4740,"state":"QLD"},{"venueId":434,"name":"Susan Dunlop Coaching","streetNo":"7","streetName":"Lincoln Pde","city":"Aspendale","postcode":3195,"state":"VIC"},{"venueId":435,"name":"Local Hydro Vac Digger","streetNo":"134","streetName":"High St","city":"Shepparton","postcode":3630,"state":"VIC"},{"venueId":436,"name":"gasoline lane","streetNo":"8","streetName":"Walana Crs","city":"Mona Vale","postcode":2103,"state":"NSW"},{"venueId":437,"name":"RAUPAKI ESTATE","streetNo":"26","streetName":"McCann Crs","city":"Kerang","postcode":3579,"state":"VIC"},{"venueId":438,"name":"Makeup by Yaz","streetNo":"3","streetName":"Crystal Crt","city":"Drouin","postcode":3818,"state":"VIC"},{"venueId":439,"name":"Baby Sleep Secrets","streetNo":"25","streetName":"Samuel Wright St","city":"Bunbury","postcode":6230,"state":"WA"},{"venueId":440,"name":"ESSENTIAL MEDICAL IMAGING","streetNo":"68","streetName":"Brightlands Ave","city":"Blackheath","postcode":2785,"state":"NSW"},{"venueId":441,"name":"WOG BOX","streetNo":"10","streetName":"Jackomos St","city":"Bonner","postcode":2914,"state":"ACT"},{"venueId":442,"name":"A GRADE PROPERTY GROUP","streetNo":"35","streetName":"Boldero Crs","city":"Glenmore Park","postcode":2745,"state":"NSW"},{"venueId":443,"name":"LLUMOS STUDIO","streetNo":"320","streetName":"Goodwood Rd","city":"Clarence Park","postcode":5034,"state":"SA"},{"venueId":444,"name":"LUSH BUCKET CAFE","streetNo":"339","streetName":"Greenwattle St","city":"Toowoomba","postcode":4350,"state":"QLD"},{"venueId":445,"name":"PHUOC - LONG DRIVING SCHOOL","streetNo":"212","streetName":"Gilles St","city":"Adelaide","postcode":5000,"state":"SA"},{"venueId":446,"name":"KHARLICIOUS","streetNo":"15","streetName":"Elliminya Crt","city":"Clarinda","postcode":3169,"state":"VIC"},{"venueId":447,"name":"SUNRISE COMMUNITY COLLEGE","streetNo":"8","streetName":"Annesley Av","city":"Bowral","postcode":2576,"state":"NSW"},{"venueId":448,"name":"DB.ES GARDEN MAINTENANCE","streetNo":"6","streetName":"Clearview Ave","city":"Trevallyn","postcode":7250,"state":"TAS"},{"venueId":449,"name":"LED LIGHTING REPAIR AUSTRALIA","streetNo":"4","streetName":"Crosss Rd","city":"Traralgon","postcode":3844,"state":"VIC"},{"venueId":450,"name":"3D TENDER / RIB BOATS","streetNo":"20","streetName":"Leyburn Drv","city":"Halls Head","postcode":6210,"state":"WA"},{"venueId":451,"name":"Red Dirt Tours","streetNo":"1032","streetName":"River Rd","city":"Gordonbrook","postcode":4610,"state":"QLD"},{"venueId":452,"name":"City Carwash","streetNo":"31","streetName":"English St","city":"Waratah","postcode":7321,"state":"TAS"},{"venueId":453,"name":"David Samuel","streetNo":"101","streetName":"Wilton Drv","city":"East Maitland","postcode":2323,"state":"NSW"},{"venueId":454,"name":"KATO Taekwondo- KOREAN AUSTRALIAN TAEKWONDO ORGANISATION","streetNo":"29","streetName":"Anderson St","city":"Ballarat","postcode":3350,"state":"VIC"},{"venueId":455,"name":"Cipriani Realty","streetNo":"336","streetName":"Hancock Rd","city":"Surrey Downs","postcode":5126,"state":"SA"},{"venueId":456,"name":"The Eden Parramatta","streetNo":"4","streetName":"Condon St","city":"Katherine South","postcode":850,"state":"NT"},{"venueId":457,"name":"Konti","streetNo":"31","streetName":"Francis St","city":"Wentworth","postcode":2648,"state":"NSW"},{"venueId":458,"name":"DANIELLE HALFORD PHOTOGRAPHY","streetNo":"3","streetName":"Main St","city":"St Marys","postcode":7215,"state":"TAS"},{"venueId":459,"name":"YO GLOBAL","streetNo":"49","streetName":"High St","city":"Gladstone","postcode":5473,"state":"SA"},{"venueId":460,"name":"Papyrus Print Works","streetNo":"57","streetName":"Henry Kendall Av","city":"Padstow Heights","postcode":2211,"state":"NSW"},{"venueId":461,"name":"STANDARD MEDIA","streetNo":"50","streetName":"Hinchinbrook Drv","city":"Thuringowa Central","postcode":4817,"state":"QLD"},{"venueId":462,"name":"Yun Clinic","streetNo":"29","streetName":"Claremont Drv","city":"Bathurst","postcode":2795,"state":"NSW"},{"venueId":463,"name":"ST8MENT LIMOUSINES","streetNo":"2","streetName":"Hastings Rd","city":"Brighton","postcode":5048,"state":"SA"},{"venueId":464,"name":"SUMS EDUCATIONAL","streetNo":"17","streetName":"Denny St","city":"Latham","postcode":2615,"state":"ACT"},{"venueId":465,"name":"New Gauge Digital","streetNo":"43","streetName":"Evan St","city":"East Mackay","postcode":4740,"state":"QLD"},{"venueId":466,"name":"Executive Brains","streetNo":"69","streetName":"Corrimal St","city":"Wollongong","postcode":2500,"state":"NSW"},{"venueId":467,"name":"Artisan Smiles","streetNo":"57","streetName":"Albert St","city":"Clarence Gardens","postcode":5039,"state":"SA"},{"venueId":468,"name":"Northcote Fencing","streetNo":"14","streetName":"Glen Eagles Way","city":"Prospect","postcode":7250,"state":"TAS"},{"venueId":469,"name":"ELEMENTS OF ALCHEMY","streetNo":"33","streetName":"Cinnamon Ave","city":"Coolum Beach","postcode":4573,"state":"QLD"},{"venueId":470,"name":"LOTTO LOGIC","streetNo":"53","streetName":"Stowport Av","city":"Crace","postcode":2911,"state":"ACT"},{"venueId":471,"name":"Coins Collectables & Crafts","streetNo":"18","streetName":"Koorabel Ave","city":"West Wollongong","postcode":2500,"state":"NSW"},{"venueId":472,"name":"Capture The Moment Events","streetNo":"29","streetName":"Hopetoun St","city":"Bendigo","postcode":3550,"state":"VIC"},{"venueId":473,"name":"3777","streetNo":"8","streetName":"Bliss St","city":"Burnley","postcode":3121,"state":"VIC"},{"venueId":474,"name":"Mums Bubs and More","streetNo":"6","streetName":"The Boulevard","city":"Floreat","postcode":6014,"state":"WA"},{"venueId":475,"name":"FLASH FIREWORKS","streetNo":"32","streetName":"Stirling Tce","city":"Albany","postcode":6330,"state":"WA"},{"venueId":476,"name":"7-ELEVEN 2373W","streetNo":"10","streetName":"Thurwood Ave","city":"Jamisontown","postcode":2750,"state":"NSW"},{"venueId":477,"name":"PIECES OF PUNK","streetNo":"22","streetName":"Rossendell Ave","city":"West Hobart","postcode":7000,"state":"TAS"},{"venueId":478,"name":"Lateral Medical","streetNo":"128","streetName":"Farrell St","city":"Port Melbourne","postcode":3207,"state":"VIC"},{"venueId":479,"name":"BELLYFIT_DANCE","streetNo":"102","streetName":"Mcminns St","city":"Darwin","postcode":800,"state":"NT"},{"venueId":480,"name":"Prime Grind and Coat","streetNo":"4","streetName":"Manton St","city":"Darwin","postcode":800,"state":"NT"},{"venueId":481,"name":"Arrpwere Group","streetNo":"225","streetName":"Abbotsford St","city":"North Melbourne","postcode":3051,"state":"VIC"},{"venueId":482,"name":"Skope IT","streetNo":"17","streetName":"Ogrady St","city":"Morwell","postcode":3840,"state":"VIC"},{"venueId":483,"name":"The Pines Vet","streetNo":"241","streetName":"Davey St","city":"South Hobart","postcode":7004,"state":"TAS"},{"venueId":484,"name":"Heal My PCOS","streetNo":"85","streetName":"Off La","city":"Gladstone","postcode":4680,"state":"QLD"},{"venueId":485,"name":"SU PIEL","streetNo":"72","streetName":"Derwent Ave","city":"Lindisfarne","postcode":7015,"state":"TAS"},{"venueId":486,"name":"LAKER PAINT","streetNo":"56","streetName":"Tansey St","city":"Beenleigh","postcode":4207,"state":"QLD"},{"venueId":487,"name":"Chen's Chinese Massage","streetNo":"2","streetName":"Lily St","city":"Bendigo","postcode":3550,"state":"VIC"},{"venueId":488,"name":"Panorama Motor Inn","streetNo":"11","streetName":"Garden St","city":"Kootingal","postcode":2352,"state":"NSW"},{"venueId":489,"name":"KNICK KNACK KORNER","streetNo":"397","streetName":"David St","city":"South Albury","postcode":2640,"state":"NSW"},{"venueId":490,"name":"COAST TO COAST WATERPROOFING SERVICES","streetNo":"19","streetName":"Forrest St","city":"Boulder","postcode":6432,"state":"WA"},{"venueId":491,"name":"MADISON LASHES AND BEAUTY","streetNo":"11","streetName":"Lancaster St","city":"Dianella","postcode":6059,"state":"WA"},{"venueId":492,"name":"Travelling Hands Massage","streetNo":"52","streetName":"Burg St","city":"East Maitland","postcode":2323,"state":"NSW"},{"venueId":493,"name":"IVY'S XTENSIONS","streetNo":"24","streetName":"Bolton St","city":"Newcastle","postcode":2300,"state":"NSW"},{"venueId":494,"name":"ALPHONSO'S FAMILY DAY CARE","streetNo":"21","streetName":"Glider Cl","city":"Wakerley","postcode":4154,"state":"QLD"},{"venueId":495,"name":"K&A Nails and Beauty Supply Services","streetNo":"9","streetName":"Verhoeven Drv","city":"Douglas","postcode":4814,"state":"QLD"},{"venueId":496,"name":"DAZZLERS DAY SPA & MASSAGE CENTRE","streetNo":"11","streetName":"Starr Cl","city":"Bentley Park","postcode":4869,"state":"QLD"},{"venueId":497,"name":"Cripps Drafting Services","streetNo":"73","streetName":"Jim Pike Ave","city":"Gordon","postcode":2906,"state":"ACT"},{"venueId":498,"name":"AFRICAN DRUMMING ACT AND REGIONS","streetNo":"73","streetName":"Acton Ave","city":"Rivervale","postcode":6103,"state":"WA"},{"venueId":499,"name":"IT MANIFEST CENTRAL COAST","streetNo":"3","streetName":"Robinia Drv","city":"Bowral","postcode":2576,"state":"NSW"}]